PLEIADES 1A             
1 38012U 11076F   14149.70479403  .00000272  00000+0  68240-4 0  7376
2 38012  98.1963 224.8886 0001581  87.0403 273.0973 14.58565792130408
PLEIADES 1A             
1 38012U 11076F   14149.84199640  .00000255  00000+0  64722-4 0  7386
2 38012  98.1962 225.0238 0001564  86.3568 273.7789 14.58565664130428
PLEIADES 1A             
1 38012U 11076F   14150.18500260  .00000261  00000+0  66019-4 0  7398
2 38012  98.1960 225.3622 0001558  86.5465 273.5929 14.58565965130470
PLEIADES 1A             
1 38012U 11076F   14150.52800785  .00000261  00000+0  65857-4 0  7402
2 38012  98.1962 225.7011 0001565  86.5436 273.5944 14.58566189130526
PLEIADES 1A             
1 38012U 11076F   14150.87101342  .00000241  00000+0  61621-4 0  7417
2 38012  98.1962 226.0394 0001576  86.3280 273.8075 14.58566146130577
PLEIADES 1A             
1 38012U 11076F   14151.21401951  .00000250  00000+0  63626-4 0  7423
2 38012  98.1960 226.3775 0001574  86.8612 273.2783 14.58566466130624
PLEIADES 1A             
1 38012U 11076F   14151.55702471  .00000241  00000+0  61743-4 0  7430
2 38012  98.1964 226.7163 0001602  86.6027 273.5350 14.58566586130674
PLEIADES 1A             
1 38012U 11076F   14151.83142923  .00000226  00000+0  58358-4 0  7443
2 38012  98.1965 226.9873 0001605  86.7322 273.4044 14.58566539130719
PLEIADES 1A             
1 38012U 11076F   14152.17443514  .00000232  00000+0  59816-4 0  7459
2 38012  98.1962 227.3257 0001593  87.3200 272.8199 14.58566827130764
PLEIADES 1A             
1 38012U 11076F   14152.51744019  .00000233  00000+0  59893-4 0  7468
2 38012  98.1965 227.6644 0001604  86.8803 273.2580 14.58567030130818
PLEIADES 1A             
1 38012U 11076F   14152.86044558  .00000216  00000+0  56214-4 0  7473
2 38012  98.1965 228.0028 0001614  87.2620 272.8747 14.58567010130865
PLEIADES 1A             
1 38012U 11076F   14153.20345136  .00000225  00000+0  58167-4 0  7488
2 38012  98.1962 228.3408 0001598  87.3905 272.7490 14.58567299130914
PLEIADES 1A             
1 38012U 11076F   14153.54645638  .00000222  00000+0  57576-4 0  7496
2 38012  98.1966 228.6796 0001610  87.2968 272.8415 14.58567466130963
PLEIADES 1A             
1 38012U 11076F   14153.88946172  .00000204  00000+0  53724-4 0  7503
2 38012  98.1964 229.0180 0001601  87.3780 272.7583 14.58567418131015
PLEIADES 1A             
1 38012U 11076F   14154.23246748  .00000216  00000+0  56330-4 0  7515
2 38012  98.1965 229.3564 0001598  86.4779 273.6619 14.58567727131066
PLEIADES 1A             
1 38012U 11076F   14154.50687133  .00000217  00000+0  56437-4 0  7522
2 38012  98.1965 229.6272 0001600  86.8580 273.2805 14.58567889131100
PLEIADES 1A             
1 38012U 11076F   14154.84987662  .00000192  00000+0  51064-4 0  7533
2 38012  98.1965 229.9655 0001626  87.6395 272.4974 14.58567766131156
PLEIADES 1A             
1 38012U 11076F   14155.19288224  .00000198  00000+0  52428-4 0  7542
2 38012  98.1962 230.3037 0001620  87.9722 272.1675 14.58568014131202
PLEIADES 1A             
1 38012U 11076F   14155.53588703  .00000200  00000+0  52886-4 0  7558
2 38012  98.1965 230.6425 0001626  87.4776 272.6611 14.58568221131259
PLEIADES 1A             
1 38012U 11076F   14155.87889212  .00000182  00000+0  48864-4 0  7565
2 38012  98.1963 230.9809 0001650  89.2800 270.8566 14.58568145131301
PLEIADES 1A             
1 38012U 11076F   14156.22189765  .00000190  00000+0  50736-4 0  7572
2 38012  98.1963 231.3193 0001648  88.8116 271.3283 14.58568410131356
PLEIADES 1A             
1 38012U 11076F   14156.35909950  .00000191  00000+0  50996-4 0  7582
2 38012  98.1963 231.4548 0001647  88.7231 271.4159 14.58568491131371
PLEIADES 1A             
1 38012U 11076F   14156.70210454  .00000183  00000+0  49224-4 0  7599
2 38012  98.1963 231.7935 0001659  88.8856 271.2532 14.58568574131422
PLEIADES 1A             
1 38012U 11076F   14156.83930660  .00000170  00000+0  46361-4 0  7608
2 38012  98.1964 231.9291 0001726  90.0499 270.0882 14.58568462131446
PLEIADES 1A             
1 38012U 11076F   14157.18231194  .00000178  00000+0  48206-4 0  7612
2 38012  98.1961 232.2674 0001647  88.4853 271.6549 14.58568740131490
PLEIADES 1A             
1 38012U 11076F   14157.52531655  .00000183  00000+0  49076-4 0  7628
2 38012  98.1961 232.6059 0001645  87.5085 272.6303 14.58568956131540
PLEIADES 1A             
1 38012U 11076F   14157.86832151  .00000168  00000+0  46021-4 0  7631
2 38012  98.1963 232.9445 0001741  89.7922 270.3460 14.58568919131598
PLEIADES 1A             
1 38012U 11076F   14158.21132684  .00000175  00000+0  47510-4 0  7648
2 38012  98.1960 233.2824 0001696  88.8540 271.2864 14.58569150131647
PLEIADES 1A             
1 38012U 11076F   14158.55433143  .00000173  00000+0  47115-4 0  7659
2 38012  98.1961 233.6210 0001701  88.8019 271.3372 14.58569295131699
PLEIADES 1A             
1 38012U 11076F   14158.82873539  .00000160  00000+0  44168-4 0  7668
2 38012  98.1961 233.8918 0001717  89.5903 270.5479 14.58569243131730
PLEIADES 1A             
1 38012U 11076F   14159.17174065  .00000174  00000+0  47192-4 0  7671
2 38012  98.1962 234.2302 0001758  90.1264 270.0161 14.58569568131784
PLEIADES 1A             
1 38012U 11076F   14159.51474480  .00000180  00000+0  48571-4 0  7683
2 38012  98.1963 234.5688 0001715  89.5656 270.5743 14.58569805131836
PLEIADES 1A             
1 38012U 11076F   14159.85774952  .00000171  00000+0  46555-4 0  7698
2 38012  98.1962 234.9071 0001713  88.7465 271.3923 14.58569859131885
PLEIADES 1A             
1 38012U 11076F   14160.20075457  .00000175  00000+0  47411-4 0  7701
2 38012  98.1961 235.2453 0001758  88.9037 271.2371 14.58570035131938
PLEIADES 1A             
1 38012U 11076F   14160.54375896  .00000181  00000+0  48773-4 0  7718
2 38012  98.1962 235.5838 0001757  88.7997 271.3407 14.58570279131987
PLEIADES 1A             
1 38012U 11076F   14160.88676348  .00000172  00000+0  46884-4 0  7723
2 38012  98.1961 235.9222 0001718  88.8494 271.2893 14.58570326132035
PLEIADES 1A             
1 38012U 11076F   14161.22976828  .00000196  00000+0  51872-4 0  7738
2 38012  98.1962 236.2606 0001742  88.0035 272.1386 14.58570750132089
PLEIADES 1A             
1 38012U 11076F   14161.50417135  .00000201  00000+0  52959-4 0  7745
2 38012  98.1965 236.5316 0001758  87.9049 272.2352 14.58570945132128
PLEIADES 1A             
1 38012U 11076F   14161.84717582  .00000188  00000+0  50349-4 0  7757
2 38012  98.1963 236.8698 0001713  87.8735 272.2653 14.58570978132179
PLEIADES 1A             
1 38012U 11076F   14162.19018046  .00000200  00000+0  52833-4 0  7761
2 38012  98.1962 237.2080 0001712  86.9505 273.1902 14.58571276132227
PLEIADES 1A             
1 38012U 11076F   14162.53318435  .00000215  00000+0  55980-4 0  7777
2 38012  98.1966 237.5467 0001772  87.8322 272.3084 14.58571630132277
PLEIADES 1A             
1 38012U 11076F   14162.87618844  .00000208  00000+0  54452-4 0  7787
2 38012  98.1964 237.8851 0001730  87.6987 272.4399 14.58571721132321
PLEIADES 1A             
1 38012U 11076F   14163.21919287  .00000223  00000+0  57775-4 0  7790
2 38012  98.1964 238.2232 0001784  86.7986 273.3421 14.58572065132370
PLEIADES 1A             
1 38012U 11076F   14163.35639451  .00000233  00000+0  59930-4 0  7805
2 38012  98.1963 238.3586 0001731  86.7108 273.4304 14.58572254132393
PLEIADES 1A             
1 38012U 11076F   14163.69939845  .00000235  00000+0  60399-4 0  7816
2 38012  98.1966 238.6973 0001811  87.9042 272.2373 14.58572485132443
PLEIADES 1A             
1 38012U 11076F   14163.83659996  .00000226  00000+0  58487-4 0  7824
2 38012  98.1965 238.8326 0001813  87.8005 272.3392 14.58572448132469
PLEIADES 1A             
1 38012U 11076F   14164.17960417  .00000243  00000+0  62000-4 0  7831
2 38012  98.1962 239.1710 0001768  87.5061 272.6358 14.58572846132518
PLEIADES 1A             
1 38012U 11076F   14164.52260772  .00000256  00000+0  64846-4 0  7842
2 38012  98.1965 239.5095 0001804  86.2378 273.9030 14.58573199132567
PLEIADES 1A             
1 38012U 11076F   14164.86561138  .00000249  00000+0  63357-4 0  7858
2 38012  98.1963 239.8480 0001779  86.9189 273.2200 14.58573330132619
PLEIADES 1A             
1 38012U 11076F   14165.20861537  .00000272  00000+0  68372-4 0  7862
2 38012  98.1962 240.1863 0001778  85.7933 274.3484 14.58573814132669
PLEIADES 1A             
1 38012U 11076F   14165.55161874  .00000281  00000+0  70242-4 0  7877
2 38012  98.1964 240.5248 0001824  86.2563 273.8843 14.58574124132713
PLEIADES 1A             
1 38012U 11076F   14165.89462229  .00000272  00000+0  68354-4 0  7884
2 38012  98.1963 240.8636 0001781  86.3136 273.8253 14.58574242132766
PLEIADES 1A             
1 38012U 11076F   14166.16902547  .00000290  00000+0  72201-4 0  7894
2 38012  98.1962 241.1342 0001753  85.6217 274.5202 14.58574639132801
PLEIADES 1A             
1 38012U 11076F   14166.51202856  .00000301  00000+0  74530-4 0  7901
2 38012  98.1964 241.4728 0001748  84.7020 275.4380 14.58574985132856
PLEIADES 1A             
1 38012U 11076F   14166.85503208  .00000288  00000+0  71751-4 0  7910
2 38012  98.1963 241.8111 0001775  85.5778 274.5612 14.58575063132906
PLEIADES 1A             
1 38012U 11076F   14167.19803596  .00000281  00000+0  70334-4 0  7921
2 38012  98.1964 242.1494 0001799  84.8361 275.3034 14.58575169132950
PLEIADES 1A             
1 38012U 11076F   14167.47243882 -.00003987  00000+0 -84838-3 0  7930
2 38012  98.1963 242.4212 0001831  84.6445 275.4552 14.58560202132990
PLEIADES 1A             
1 38012U 11076F   14167.81544245  .00000274  00000+0  68867-4 0  7945
2 38012  98.1963 242.7597 0001257 139.6916 220.3286 14.58536803133045
PLEIADES 1A             
1 38012U 11076F   14168.43288581  .00007285  00000+0  15758-2 0  7951
2 38012  98.1958 243.3679 0001923 100.7351 259.3638 14.58536193133134
